IRIDIUM 63              
1 25286U 98021B   26008.23180983  .00000520  00000+0  16962-3 0  9996
2 25286  86.3990 356.0951 0002083  82.4136 277.7298 14.36762744453284
IRIDIUM 69              
1 25319U 98026A   26008.23693953  .00000503  00000+0  14965-3 0  9996
2 25319  86.3972   8.7329 0004520  77.3776 282.7929 14.41245043452596
IRIDIUM 71              
1 25320U 98026B   26008.22193204  .00000398  00000+0  11693-3 0  9998
2 25320  86.3976   3.4103 0003999 109.6665 250.4967 14.41338499453121
IRIDIUM 73              
1 25344U 98032C   26008.31086629  .00000847  00000+0  20456-3 0  9999
2 25344  86.4430 319.6975 0002643  72.2976 287.8519 14.52035934460324
IRIDIUM 82              
1 25467U 98051A   26008.02560713  .00043258  00000+0  74057-3 0  9994
2 25467  86.3597   7.8453 0055727 227.7004 131.9526 15.49274499455464
